CCSDS_OMM_VERS = 2.0
CREATION_DATE  = 
ORIGINATOR     = 

OBJECT_NAME    = TITAN 4B R/B
OBJECT_ID      = 2000-047B
CENTER_NAME    = EARTH
REF_FRAME      = TEME
TIME_SYSTEM    = UTC
MEAN_ELEMENT_THEORY = SGP/SGP4

EPOCH          = 2026-03-17T13:56:40.552224
MEAN_MOTION    = 15.09641935
ECCENTRICITY   = .00388641
INCLINATION    = 67.9912
RA_OF_ASC_NODE = 18.3185
ARG_OF_PERICENTER = 26.0031
MEAN_ANOMALY   = 334.3059

EPHEMERIS_TYPE = 0
CLASSIFICATION_TYPE = U
NORAD_CAT_ID   = 26474
ELEMENT_SET_NO = 999
REV_AT_EPOCH   = 39410
BSTAR          = .22544824E-3
MEAN_MOTION_DOT = .3564E-4
MEAN_MOTION_DDOT = 0

CCSDS_OMM_VERS = 2.0
CREATION_DATE  = 
ORIGINATOR     = 

OBJECT_NAME    = ENVISAT
OBJECT_ID      = 2002-009A
CENTER_NAME    = EARTH
REF_FRAME      = TEME
TIME_SYSTEM    = UTC
MEAN_ELEMENT_THEORY = SGP/SGP4

EPOCH          = 2026-03-17T09:49:14.496384
MEAN_MOTION    = 14.39039759
ECCENTRICITY   = .00013083
INCLINATION    = 98.3740
RA_OF_ASC_NODE = 29.8233
ARG_OF_PERICENTER = 82.5384
MEAN_ANOMALY   = 28.7848

EPHEMERIS_TYPE = 0
CLASSIFICATION_TYPE = U
NORAD_CAT_ID   = 27386
ELEMENT_SET_NO = 999
REV_AT_EPOCH   = 26028
BSTAR          = .4703798E-4
MEAN_MOTION_DOT = .102E-5
MEAN_MOTION_DDOT = 0

CCSDS_OMM_VERS = 2.0
CREATION_DATE  = 
ORIGINATOR     = 

OBJECT_NAME    = IDEFIX & ARIANE 42P R/B
OBJECT_ID      = 2002-021B
CENTER_NAME    = EARTH
REF_FRAME      = TEME
TIME_SYSTEM    = UTC
MEAN_ELEMENT_THEORY = SGP/SGP4

EPOCH          = 2026-03-17T12:52:45.990624
MEAN_MOTION    = 14.31031580
ECCENTRICITY   = .00120373
INCLINATION    = 98.5878
RA_OF_ASC_NODE = 15.0495
ARG_OF_PERICENTER = 159.0987
MEAN_ANOMALY   = 201.0691

EPHEMERIS_TYPE = 0
CLASSIFICATION_TYPE = U
NORAD_CAT_ID   = 27422
ELEMENT_SET_NO = 999
REV_AT_EPOCH   = 24514
BSTAR          = .10985277E-3
MEAN_MOTION_DOT = .246E-5
MEAN_MOTION_DDOT = 0

CCSDS_OMM_VERS = 2.0
CREATION_DATE  = 
ORIGINATOR     = 

OBJECT_NAME    = AQUA
OBJECT_ID      = 2002-022A
CENTER_NAME    = EARTH
REF_FRAME      = TEME
TIME_SYSTEM    = UTC
MEAN_ELEMENT_THEORY = SGP/SGP4

EPOCH          = 2026-03-17T15:05:24.790560
MEAN_MOTION    = 14.61995972
ECCENTRICITY   = .00006959
INCLINATION    = 98.4188
RA_OF_ASC_NODE = 44.1391
ARG_OF_PERICENTER = 108.1590
MEAN_ANOMALY   = 339.8195

EPHEMERIS_TYPE = 0
CLASSIFICATION_TYPE = U
NORAD_CAT_ID   = 27424
ELEMENT_SET_NO = 999
REV_AT_EPOCH   = 26989
BSTAR          = .19322115E-3
MEAN_MOTION_DOT = .919E-5
MEAN_MOTION_DDOT = 0

CCSDS_OMM_VERS = 2.0
CREATION_DATE  = 
ORIGINATOR     = 

OBJECT_NAME    = CZ-4B R/B
OBJECT_ID      = 2002-024C
CENTER_NAME    = EARTH
REF_FRAME      = TEME
TIME_SYSTEM    = UTC
MEAN_ELEMENT_THEORY = SGP/SGP4

EPOCH          = 2026-03-17T10:03:18.302112
MEAN_MOTION    = 14.14548900
ECCENTRICITY   = .0050102
INCLINATION    = 98.8822
RA_OF_ASC_NODE = 129.7861
ARG_OF_PERICENTER = 2.3402
MEAN_ANOMALY   = 8.0799

EPHEMERIS_TYPE = 0
CLASSIFICATION_TYPE = U
NORAD_CAT_ID   = 27432
ELEMENT_SET_NO = 999
REV_AT_EPOCH   = 23033
BSTAR          = .38969627E-4
MEAN_MOTION_DOT = .31E-6
MEAN_MOTION_DDOT = 0

CCSDS_OMM_VERS = 2.0
CREATION_DATE  = 
ORIGINATOR     = 

OBJECT_NAME    = MIDORI II (ADEOS-II)
OBJECT_ID      = 2002-056A
CENTER_NAME    = EARTH
REF_FRAME      = TEME
TIME_SYSTEM    = UTC
MEAN_ELEMENT_THEORY = SGP/SGP4

EPOCH          = 2026-03-17T08:44:27.021696
MEAN_MOTION    = 14.29291076
ECCENTRICITY   = .00012942
INCLINATION    = 98.7781
RA_OF_ASC_NODE = 34.8954
ARG_OF_PERICENTER = 33.7265
MEAN_ANOMALY   = 326.3998

EPHEMERIS_TYPE = 0
CLASSIFICATION_TYPE = U
NORAD_CAT_ID   = 27597
ELEMENT_SET_NO = 999
REV_AT_EPOCH   = 21139
BSTAR          = .12399447E-3
MEAN_MOTION_DOT = .27E-5
MEAN_MOTION_DDOT = 0

CCSDS_OMM_VERS = 2.0
CREATION_DATE  = 
ORIGINATOR     = 

OBJECT_NAME    = H-2A R/B
OBJECT_ID      = 2002-056E
CENTER_NAME    = EARTH
REF_FRAME      = TEME
TIME_SYSTEM    = UTC
MEAN_ELEMENT_THEORY = SGP/SGP4

EPOCH          = 2026-03-17T09:27:22.465728
MEAN_MOTION    = 14.33765774
ECCENTRICITY   = .00709378
INCLINATION    = 98.3216
RA_OF_ASC_NODE = 36.4669
ARG_OF_PERICENTER = 137.8889
MEAN_ANOMALY   = 335.5025

EPHEMERIS_TYPE = 0
CLASSIFICATION_TYPE = U
NORAD_CAT_ID   = 27601
ELEMENT_SET_NO = 999
REV_AT_EPOCH   = 21521
BSTAR          = .93951737E-4
MEAN_MOTION_DOT = .227E-5
MEAN_MOTION_DDOT = 0

CCSDS_OMM_VERS = 2.0
CREATION_DATE  = 
ORIGINATOR     = 

OBJECT_NAME    = CZ-4B R/B
OBJECT_ID      = 2003-049C
CENTER_NAME    = EARTH
REF_FRAME      = TEME
TIME_SYSTEM    = UTC
MEAN_ELEMENT_THEORY = SGP/SGP4

EPOCH          = 2026-03-17T10:18:15.369984
MEAN_MOTION    = 14.55027481
ECCENTRICITY   = .00475978
INCLINATION    = 98.6884
RA_OF_ASC_NODE = 71.6382
ARG_OF_PERICENTER = 206.8717
MEAN_ANOMALY   = 153.0013

EPHEMERIS_TYPE = 0
CLASSIFICATION_TYPE = U
NORAD_CAT_ID   = 28059
ELEMENT_SET_NO = 999
REV_AT_EPOCH   = 18772
BSTAR          = .84706764E-4
MEAN_MOTION_DOT = .319E-5
MEAN_MOTION_DDOT = 0

CCSDS_OMM_VERS = 2.0
CREATION_DATE  = 
ORIGINATOR     = 

OBJECT_NAME    = CZ-2C R/B
OBJECT_ID      = 2004-012C
CENTER_NAME    = EARTH
REF_FRAME      = TEME
TIME_SYSTEM    = UTC
MEAN_ELEMENT_THEORY = SGP/SGP4

EPOCH          = 2026-03-17T14:26:17.235168
MEAN_MOTION    = 15.65474299
ECCENTRICITY   = .00129636
INCLINATION    = 97.7215
RA_OF_ASC_NODE = 142.6489
ARG_OF_PERICENTER = 277.3923
MEAN_ANOMALY   = 82.5862

EPHEMERIS_TYPE = 0
CLASSIFICATION_TYPE = U
NORAD_CAT_ID   = 28222
ELEMENT_SET_NO = 999
REV_AT_EPOCH   = 20551
BSTAR          = .47736226E-3
MEAN_MOTION_DOT = .47966E-3
MEAN_MOTION_DDOT = 0

CCSDS_OMM_VERS = 2.0
CREATION_DATE  = 
ORIGINATOR     = 

OBJECT_NAME    = SL-16 R/B
OBJECT_ID      = 2004-021B
CENTER_NAME    = EARTH
REF_FRAME      = TEME
TIME_SYSTEM    = UTC
MEAN_ELEMENT_THEORY = SGP/SGP4

EPOCH          = 2026-03-17T09:02:37.467456
MEAN_MOTION    = 14.14594708
ECCENTRICITY   = .00044514
INCLINATION    = 70.9997
RA_OF_ASC_NODE = 216.3598
ARG_OF_PERICENTER = 359.4299
MEAN_ANOMALY   = 0.6818

EPHEMERIS_TYPE = 0
CLASSIFICATION_TYPE = U
NORAD_CAT_ID   = 28353
ELEMENT_SET_NO = 999
REV_AT_EPOCH   = 12392
BSTAR          = -.11551592E-3
MEAN_MOTION_DOT = -.27E-5
MEAN_MOTION_DDOT = 0

CCSDS_OMM_VERS = 2.0
CREATION_DATE  = 
ORIGINATOR     = 

OBJECT_NAME    = CZ-4B R/B
OBJECT_ID      = 2004-035C
CENTER_NAME    = EARTH
REF_FRAME      = TEME
TIME_SYSTEM    = UTC
MEAN_ELEMENT_THEORY = SGP/SGP4

EPOCH          = 2026-03-17T13:34:19.068672
MEAN_MOTION    = 15.29203901
ECCENTRICITY   = .00302386
INCLINATION    = 97.3487
RA_OF_ASC_NODE = 110.7139
ARG_OF_PERICENTER = 302.3286
MEAN_ANOMALY   = 57.5027

EPHEMERIS_TYPE = 0
CLASSIFICATION_TYPE = U
NORAD_CAT_ID   = 28415
ELEMENT_SET_NO = 999
REV_AT_EPOCH   = 18111
BSTAR          = .21576436E-3
MEAN_MOTION_DOT = .612E-4
MEAN_MOTION_DDOT = 0

CCSDS_OMM_VERS = 2.0
CREATION_DATE  = 
ORIGINATOR     = 

OBJECT_NAME    = CZ-2C R/B
OBJECT_ID      = 2004-046B
CENTER_NAME    = EARTH
REF_FRAME      = TEME
TIME_SYSTEM    = UTC
MEAN_ELEMENT_THEORY = SGP/SGP4

EPOCH          = 2026-03-17T11:29:54.378240
MEAN_MOTION    = 14.26994816
ECCENTRICITY   = .01403013
INCLINATION    = 98.1981
RA_OF_ASC_NODE = 350.9781
ARG_OF_PERICENTER = 131.5088
MEAN_ANOMALY   = 229.8233

EPHEMERIS_TYPE = 0
CLASSIFICATION_TYPE = U
NORAD_CAT_ID   = 28480
ELEMENT_SET_NO = 999
REV_AT_EPOCH   = 10961
BSTAR          = .60646245E-4
MEAN_MOTION_DOT = .124E-5
MEAN_MOTION_DDOT = 0

CCSDS_OMM_VERS = 2.0
CREATION_DATE  = 
ORIGINATOR     = 

OBJECT_NAME    = ARIANE 5 R/B
OBJECT_ID      = 2004-049H
CENTER_NAME    = EARTH
REF_FRAME      = TEME
TIME_SYSTEM    = UTC
MEAN_ELEMENT_THEORY = SGP/SGP4

EPOCH          = 2026-03-17T10:44:09.758688
MEAN_MOTION    = 14.85280003
ECCENTRICITY   = .00833979
INCLINATION    = 98.2639
RA_OF_ASC_NODE = 245.1954
ARG_OF_PERICENTER = 326.6505
MEAN_ANOMALY   = 32.9471

EPHEMERIS_TYPE = 0
CLASSIFICATION_TYPE = U
NORAD_CAT_ID   = 28499
ELEMENT_SET_NO = 999
REV_AT_EPOCH   = 14694
BSTAR          = .8358085E-4
MEAN_MOTION_DOT = .698E-5
MEAN_MOTION_DDOT = 0

CCSDS_OMM_VERS = 2.0
CREATION_DATE  = 
ORIGINATOR     = 

OBJECT_NAME    = CZ-2D R/B
OBJECT_ID      = 2005-024B
CENTER_NAME    = EARTH
REF_FRAME      = TEME
TIME_SYSTEM    = UTC
MEAN_ELEMENT_THEORY = SGP/SGP4

EPOCH          = 2026-03-17T11:14:23.532288
MEAN_MOTION    = 15.60864652
ECCENTRICITY   = .00045027
INCLINATION    = 97.3587
RA_OF_ASC_NODE = 91.9036
ARG_OF_PERICENTER = 25.2545
MEAN_ANOMALY   = 334.8931

EPHEMERIS_TYPE = 0
CLASSIFICATION_TYPE = U
NORAD_CAT_ID   = 28738
ELEMENT_SET_NO = 999
REV_AT_EPOCH   = 14099
BSTAR          = .39741089E-3
MEAN_MOTION_DOT = .33158E-3
MEAN_MOTION_DDOT = 0

CCSDS_OMM_VERS = 2.0
CREATION_DATE  = 
ORIGINATOR     = 

OBJECT_NAME    = ALOS (DAICHI)
OBJECT_ID      = 2006-002A
CENTER_NAME    = EARTH
REF_FRAME      = TEME
TIME_SYSTEM    = UTC
MEAN_ELEMENT_THEORY = SGP/SGP4

EPOCH          = 2026-03-17T14:29:45.680352
MEAN_MOTION    = 14.69835564
ECCENTRICITY   = .00007311
INCLINATION    = 98.1231
RA_OF_ASC_NODE = 32.5204
ARG_OF_PERICENTER = 75.2830
MEAN_ANOMALY   = 284.8457

EPHEMERIS_TYPE = 0
CLASSIFICATION_TYPE = U
NORAD_CAT_ID   = 28931
ELEMENT_SET_NO = 999
REV_AT_EPOCH   = 7464
BSTAR          = .21785529E-3
MEAN_MOTION_DOT = .1252E-4
MEAN_MOTION_DDOT = 0

